NORAD_CAT_ID,OBJECT_NAME,OBJECT_TYPE,EPOCH,MEAN_MOTION,ECCENTRICITY,INCLINATION,RA_OF_ASC_NODE,ARG_OF_PERICENTER,MEAN_ANOMALY,BSTAR,MEAN_MOTION_DOT,MEAN_MOTION_DDOT,TLE_LINE0,TLE_LINE1,TLE_LINE2,SEMIMAJOR_AXIS,PERIOD,APOGEE,PERIGEE,DECAYED
52347.0,STARLINK-3826,PAYLOAD,2023-03-12 10:13:25,15.08850851,0.0001136,53.2144,66.9687,104.8999,255.2119,0.0014856,0.00023441,0.0,0 STARLINK-3826,1 52347U 22045S   23071.42599059  .00023441  00000-0  14856-2 0  9990,2 52347  53.2144  66.9687 0001136 104.8999 255.2119 15.08850851 50736,6917.847,95.437,540.498,538.926,0.0
52347.0,STARLINK-3826,PAYLOAD,2023-03-13 11:39:35,15.08869181,0.000143,53.2151,62.2106,93.8135,266.3021,0.0012964,0.00020421,0.0,0 STARLINK-3826,1 52347U 22045S   23072.48582574  .00020421  00000-0  12964-2 0  9994,2 52347  53.2151  62.2106 0001430  93.8135 266.3021 15.08869181 50893,6917.791,95.436,540.645,538.667,0.0
52347.0,STARLINK-3826,PAYLOAD,2023-03-13 22:47:16,15.08874604,0.0002212,53.2145,60.1314,76.2362,283.8876,0.00090243,0.00014117,0.0,0 STARLINK-3826,1 52347U 22045S   23072.94950091  .00014117  00000-0  90243-3 0  9990,2 52347  53.2145  60.1314 0002212  76.2362 283.8876 15.08874604 50966,6917.775,95.435,541.17,538.109,0.0
52347.0,STARLINK-3826,PAYLOAD,2023-03-14 05:08:48,15.08883797,0.0001637,53.2144,58.9411,92.7268,267.3911,0.0010308,0.00016175,0.0,0 STARLINK-3826,1 52347U 22045S   23073.21445118  .00016175  00000-0  10308-2 0  9999,2 52347  53.2144  58.9411 0001637  92.7268 267.3911 15.08883797 51002,6917.747,95.435,540.744,538.479,0.0
52347.0,STARLINK-3826,PAYLOAD,2023-03-14 08:19:34,15.08894336,0.0001736,53.2149,58.3455,91.3959,268.7232,0.0012458,0.00019624,0.0,0 STARLINK-3826,1 52347U 22045S   23073.34692596  .00019624  00000-0  12458-2 0  9997,2 52347  53.2149  58.3455 0001736  91.3959 268.7232 15.08894336 51025,6917.714,95.434,540.78,538.378,0.0
52347.0,STARLINK-3826,PAYLOAD,2023-03-14 16:16:30,15.08861907,9.3e-05,53.2159,56.8593,117.2226,242.8861,0.00024199,3.568e-05,0.0,0 STARLINK-3826,1 52347U 22045S   23073.67812506  .00003568  00000-0  24199-3 0  9994,2 52347  53.2159  56.8593 0000930 117.2226 242.8861 15.08861907 51076,6917.813,95.436,540.322,539.035,0.0
52347.0,STARLINK-3826,PAYLOAD,2023-03-15 04:59:35,15.08837294,0.0001668,53.2144,54.481,96.4114,263.7068,-0.00015979,-2.83e-05,0.0,0 STARLINK-3826,1 52347U 22045S   23074.20805218 -.00002830  00000-0 -15979-3 0  9995,2 52347  53.2144  54.4810 0001668  96.4114 263.7068 15.08837294 51151,6917.889,95.438,540.908,538.6,0.0
52347.0,STARLINK-3826,PAYLOAD,2023-03-15 09:45:45,15.08849169,0.0001784,53.2154,53.5866,111.6318,248.4864,0.00074945,0.00011663,0.0,0 STARLINK-3826,1 52347U 22045S   23074.40677087  .00011663  00000-0  74945-3 0  9998,2 52347  53.2154  53.5866 0001784 111.6318 248.4864 15.08849169 51189,6917.852,95.437,540.952,538.483,0.0
52347.0,STARLINK-3826,PAYLOAD,2023-03-16 04:50:23,15.08842627,0.0001505,53.2169,50.0201,106.9347,253.181,0.0018759,0.00029695,0.0,0 STARLINK-3826,1 52347U 22045S   23075.20166357  .00029695  00000-0  18759-2 0  9994,2 52347  53.2169  50.0201 0001505 106.9347 253.1810 15.08842627 51300,6917.872,95.437,540.778,538.696,0.0
52347.0,STARLINK-3826,PAYLOAD,2023-03-16 09:36:32,15.08856021,0.0001512,53.2169,49.1274,105.9507,254.1652,0.0019637,0.00031116,0.0,0 STARLINK-3826,1 52347U 22045S   23075.40038180  .00031116  00000-0  19637-2 0  9995,2 52347  53.2169  49.1274 0001512 105.9507 254.1652 15.08856021 51335,6917.831,95.437,540.742,538.65,0.0
52347.0,STARLINK-3826,PAYLOAD,2023-03-17 04:41:11,15.08836979,0.0001284,53.2167,45.56,91.5841,268.5298,0.0014646,0.00023096,0.0,0 STARLINK-3826,1 52347U 22045S   23076.19527254  .00023096  00000-0  14646-2 0  9990,2 52347  53.2167  45.5600 0001284  91.5841 268.5298 15.08836979 51451,6917.89,95.438,540.643,538.866,0.0
52347.0,STARLINK-3826,PAYLOAD,2023-03-17 07:51:57,15.08839343,0.0001328,53.2173,44.9649,89.4602,270.6543,0.0013463,0.00021203,0.0,0 STARLINK-3826,1 52347U 22045S   23076.32775297  .00021203  00000-0  13463-2 0  9991,2 52347  53.2173  44.9649 0001328  89.4602 270.6543 15.08839343 51471,6917.882,95.438,540.666,538.829,0.0
52347.0,STARLINK-3826,PAYLOAD,2023-03-18 04:31:58,15.08854968,0.0001856,53.2158,41.0998,101.4332,258.6869,0.0014403,0.00022718,0.0,0 STARLINK-3826,1 52347U 22045S   23077.18887189  .00022718  00000-0  14403-2 0  9997,2 52347  53.2158  41.0998 0001856 101.4332 258.6869 15.08854968 51602,6917.835,95.437,540.984,538.416,0.0
52347.0,STARLINK-3826,PAYLOAD,2023-03-18 22:01:12,15.08869164,0.0001883,53.2173,37.8294,104.5323,255.5878,0.00035388,5.353e-05,0.0,0 STARLINK-3826,1 52347U 22045S   23077.91750433  .00005353  00000-0  35388-3 0  9991,2 52347  53.2173  37.8294 0001883 104.5323 255.5878 15.08869164 51717,6917.791,95.436,540.959,538.354,0.0
52347.0,STARLINK-3826,PAYLOAD,2023-03-19 04:22:44,15.08864624,0.0001229,53.2166,36.6399,96.2311,263.8821,0.00064508,0.0001,0.0,0 STARLINK-3826,1 52347U 22045S   23078.18246092  .00010000  00000-0  64508-3 0  9993,2 52347  53.2166  36.6399 0001229  96.2311 263.8821 15.08864624 51750,6917.805,95.436,540.52,538.82,0.0
52347.0,STARLINK-3826,PAYLOAD,2023-03-19 13:55:03,15.08841205,0.0001152,53.2157,34.8529,95.2673,264.845,-0.00022587,-3.881e-05,0.0,0 STARLINK-3826,1 52347U 22045S   23078.57990270 -.00003881  00000-0 -22587-3 0  9992,2 52347  53.2157  34.8529 0001152  95.2673 264.8450 15.08841205 51816,6917.877,95.437,540.539,538.945,0.0
52347.0,STARLINK-3826,PAYLOAD,2023-03-20 07:24:18,15.08849123,0.0001293,53.2175,31.5854,107.9315,252.1818,0.00011598,1.559e-05,0.0,0 STARLINK-3826,1 52347U 22045S   23079.30854252  .00001559  00000-0  11598-3 0  9991,2 52347  53.2175  31.5854 0001293 107.9315 252.1818 15.08849123 51928,6917.853,95.437,540.612,538.823,0.0
52347.0,STARLINK-3826,PAYLOAD,2023-03-21 05:39:42,15.08845987,0.0001251,53.2164,27.4195,111.5119,248.6006,0.00021956,3.209e-05,0.0,0 STARLINK-3826,1 52347U 22045S   23080.23590692  .00003209  00000-0  21956-3 0  9993,2 52347  53.2164  27.4195 0001251 111.5119 248.6006 15.08845987 52064,6917.862,95.437,540.593,538.862,0.0
52347.0,STARLINK-3826,PAYLOAD,2023-03-21 19:58:11,15.08830537,0.0001388,53.218,24.7464,95.7368,264.3782,0.00013828,1.913e-05,0.0,0 STARLINK-3826,1 52347U 22045S   23080.83207902  .00001913  00000-0  13828-3 0  9997,2 52347  53.2180  24.7464 0001388  95.7368 264.3782 15.08830537 52152,6917.909,95.438,540.735,538.814,0.0
52347.0,STARLINK-3826,PAYLOAD,2023-03-22 05:30:30,15.08848205,0.000127,53.2165,22.9594,92.5854,267.5283,0.0014266,0.00022494,0.0,0 STARLINK-3826,1 52347U 22045S   23081.22951860  .00022494  00000-0  14266-2 0  9993,2 52347  53.2165  22.9594 0001270  92.5854 267.5283 15.08848205 52213,6917.855,95.437,540.599,538.842,0.0
52347.0,STARLINK-3826,PAYLOAD,2023-03-23 02:10:31,15.08848228,0.0001074,53.2176,19.0916,91.6404,268.4711,0.00078672,0.00012258,0.0,0 STARLINK-3826,1 52347U 22045S   23082.09063722  .00012258  00000-0  78672-3 0  9999,2 52347  53.2176  19.0916 0001074  91.6404 268.4711 15.08848228 52348,6917.855,95.437,540.463,538.977,0.0
52347.0,STARLINK-3826,PAYLOAD,2023-03-23 05:21:17,15.0886408,0.0001254,53.2168,18.497,86.1888,273.9248,0.0012084,0.00019009,0.0,0 STARLINK-3826,1 52347U 22045S   23082.22311404  .00019009  00000-0  12084-2 0  9992,2 52347  53.2168  18.4970 0001254  86.1888 273.9248 15.08864080 52369,6917.807,95.436,540.539,538.804,0.0
52347.0,STARLINK-3826,PAYLOAD,2023-03-24 02:01:17,15.08873775,0.0001261,53.2172,14.6341,92.0444,268.0692,0.0025202,0.00040086,0.0,0 STARLINK-3826,1 52347U 22045S   23083.08423292  .00040086  00000-0  25202-2 0  9991,2 52347  53.2172  14.6341 0001261  92.0444 268.0692 15.08873775 52499,6917.777,95.435,540.514,538.77,0.0
52347.0,STARLINK-3826,PAYLOAD,2023-03-24 22:41:17,15.0888811,0.0001327,53.2174,10.769,105.791,254.3228,0.0017469,0.0002766,0.0,0 STARLINK-3826,1 52347U 22045S   23083.94533928  .00027660  00000-0  17469-2 0  9993,2 52347  53.2174  10.7690 0001327 105.7910 254.3228 15.08888110 52625,6917.733,95.435,540.516,538.68,0.0
52347.0,STARLINK-3826,PAYLOAD,2023-03-25 01:52:03,15.08882419,0.0001012,53.2173,10.1757,65.4907,294.6191,0.0015294,0.00024164,0.0,0 STARLINK-3826,1 52347U 22045S   23084.07781905  .00024164  00000-0  15294-2 0  9998,2 52347  53.2173  10.1757 0001012  65.4907 294.6191 15.08882419 52645,6917.751,95.435,540.316,538.916,0.0
52347.0,STARLINK-3826,PAYLOAD,2023-03-25 22:32:05,15.0882013,0.000111,53.2169,6.3102,88.0033,272.1086,0.0010299,0.00016132,0.0,0 STARLINK-3826,1 52347U 22045S   23084.93895573  .00016132  00000-0  10299-2 0  9996,2 52347  53.2169   6.3102 0001110  88.0033 272.1086 15.08820130 52771,6917.941,95.439,540.574,539.038,0.0
52347.0,STARLINK-3826,PAYLOAD,2023-03-26 01:42:52,15.08804623,0.0001175,53.2171,5.7147,72.7328,287.3792,-6.8433e-06,-3.97e-06,0.0,0 STARLINK-3826,1 52347U 22045S   23085.07143832 -.00000397  00000-0 -68433-5 0  9990,2 52347  53.2171   5.7147 0001175  72.7328 287.3792 15.08804623 52797,6917.989,95.44,540.666,539.041,0.0
52347.0,STARLINK-3826,PAYLOAD,2023-03-26 22:22:54,15.0882542,0.0001205,53.2177,1.8519,67.2071,292.9049,0.00063152,9.773e-05,0.0,0 STARLINK-3826,1 52347U 22045S   23085.93257040  .00009773  00000-0  63152-3 0  9998,2 52347  53.2177   1.8519 0001205  67.2071 292.9049 15.08825420 52921,6917.925,95.438,540.624,538.956,0.0
52347.0,STARLINK-3826,PAYLOAD,2023-03-26 23:58:17,15.08834247,0.0001241,53.2171,1.5506,72.9456,287.1672,0.00084439,0.00013174,0.0,0 STARLINK-3826,1 52347U 22045S   23085.99880979  .00013174  00000-0  84439-3 0  9998,2 52347  53.2171   1.5506 0001241  72.9456 287.1672 15.08834247 52934,6917.898,95.438,540.621,538.904,0.0
52347.0,STARLINK-3826,PAYLOAD,2023-03-27 04:44:26,15.08855656,0.0001281,53.2178,0.6593,78.318,281.7956,0.001434,0.00022618,0.0,0 STARLINK-3826,1 52347U 22045S   23086.19752685  .00022618  00000-0  14340-2 0  9999,2 52347  53.2178   0.6593 0001281  78.3180 281.7956 15.08855656 52960,6917.833,95.437,540.584,538.811,0.0
